111P/Helin-Roman-Crockett,e,4.2262,89.7631,0.9966,4.149167,0.1166172,0.10642837,32.5741,03/22.0/2022,2000,g  5.0,8.0
# From MPEC 2021-S45
112P/Urata-Niijima,e,24.2046,31.8319,21.4711,3.525100,0.1489179,0.59016368,115.0887,03/22.0/2022,2000,g 14.0,6.0
# From MPEC 2022-D36
113P/Spitaler,e,5.2901,306.6787,115.5072,3.691115,0.1389849,0.41976920,350.0746,03/22.0/2022,2000,g 13.5,4.0
# From MPEC 2021-S45
114P/Wiseman-Skiff,e,18.2781,271.0380,172.7517,3.544125,0.1477204,0.55497449,117.8658,03/22.0/2022,2000,g 11.5,6.0
# From MPEC 2021-UA9
115P/Maury,e,11.6774,176.0087,120.9862,4.271769,0.1116330,0.51836714,67.0343,03/22.0/2022,2000,g 10.5,6.0
# From MPEC 2022-F14
116P/Wild,e,3.6034,20.9800,173.3027,3.490685,0.1511256,0.37060501,342.3252,03/22.0/2022,2000,g  2.5,10.0
# From MPEC 2022-F14
117P/Helin-Roman-Alu,e,8.7039,58.8412,222.9278,4.082940,0.1194661,0.25552223,347.1322,03/22.0/2022,2000,g  2.5,8.0
# From MPEC 2021-TD0
118P/Shoemaker-Levy,e,10.0951,142.0939,314.7906,3.348715,0.1608373,0.45369770,320.2098,03/22.0/2022,2000,g 12.0,4.0
# From MPEC 2022-CN4
119P/Parker-Hartley,e,7.3932,104.5756,321.9987,3.806256,0.1327263,0.38837091,341.0411,03/22.0/2022,2000,g  3.5,8.0
# From MPEC 2022-CN4
120P/Mueller,e,8.4899,358.6717,36.6042,3.963287,0.1249168,0.37472161,39.8116,03/22.0/2022,2000,g 12.0,4.0
# From MPEC 2021-Y10
121P/Shoemaker-Holt,e,20.1644,94.1171,11.5192,4.583658,0.1004352,0.18595838,313.5094,03/22.0/2022,2000,g  6.5,8.0
# From MPC 75718
122P/de Vico,e,85.2259,79.6049,12.9970,17.62418,0.0133211,0.96227225,129.0994,03/22.0/2022,2000,g  7.5,5.2
# From MPEC 2021-F20
123P/West-Hartley,e,15.2838,45.9804,104.0828,3.878098,0.1290553,0.44530917,147.5194,03/22.0/2022,2000,g 12.2,4.0
# From MPEC 2021-F20
124P/Mrkos,e,31.6658,0.1494,184.5609,3.333582,0.1619338,0.50160379,112.3964,03/22.0/2022,2000,g 15.2,4.0
# From MPEC 2015-M77
125P/Spacewatch,e,9.9866,153.1468,87.2235,3.126813,0.1782589,0.51231008,232.3118,03/22.0/2022,2000,g  9.0,4.0
# From MPC 66205
126P/IRAS,e,45.8756,357.8712,356.5616,5.636818,0.0736467,0.69638734,325.3641,03/22.0/2022,2000,g  9.0,4.0
# From MPC 84321
127P/Holt-Olmstead,e,14.2987,13.6078,6.3357,3.455275,0.1534547,0.36013944,338.2684,03/22.0/2022,2000,g 11.0,6.0
# From MPC 89014
128P/Shoemaker-Holt,e,4.3691,214.3102,210.2652,4.490358,0.1035816,0.32127319,196.5101,03/22.0/2022,2000,g  8.5,4.0
# From MPEC 2022-ED3
129P/Shoemaker-Levy,e,3.4422,184.8697,307.5654,4.285966,0.1110788,0.08440417,331.7821,03/22.0/2022,2000,g 11.0,4.0
# From MPEC 2022-ED3
130P/McNaught-Hughes,e,6.0624,70.2019,246.0606,3.383574,0.1583582,0.46130166,240.5066,03/22.0/2022,2000,g 10.0,6.0
# From MPC102101
131P/Mueller,e,7.3584,214.1478,179.0343,3.679781,0.1396275,0.34432188,160.8680,03/22.0/2022,2000,g 11.0,4.0
# From MPEC 2022-F14
132P/Helin-Roman-Alu,e,5.3826,173.9971,216.3536,3.885630,0.1286802,0.56459961,16.5842,03/22.0/2022,2000,g 11.0,6.0
# From MPC 94676
133P/Elst-Pizarro,e,1.3895,160.0991,131.8834,3.165406,0.1750088,0.15664813,223.5154,03/22.0/2022,2000,g 15.4,2.0
# From MPC 89012
134P/Kowal-Vavrova,e,4.3365,202.0605,18.8779,6.262576,0.0628890,0.58543710,180.2935,03/22.0/2022,2000,g 11.5,4.0
# From MPEC 2021-F20
135P/Shoemaker-Levy,e,6.0630,213.0246,22.3223,3.801330,0.1329844,0.29495838,357.8262,03/22.0/2022,2000,g  7.0,8.0
# From MPEC 2020-W26
136P/Mueller,e,9.4243,137.4448,224.9790,4.191494,0.1148552,0.29316950,243.1654,03/22.0/2022,2000,g 11.0,4.0
# From MPEC 2021-N06
137P/Shoemaker-Levy,e,4.8554,232.9913,141.0859,4.520952,0.1025320,0.57375118,122.4026,03/22.0/2022,2000,g 11.0,4.0
# From MPEC 2016-U66
138P/Shoemaker-Levy,e,10.0904,309.3156,95.5463,3.621269,0.1430253,0.53092509,150.7096,03/22.0/2022,2000,g 15.0,6.0
# From MPEC 2020-HN5
139P/Vaisala-Oterma,e,2.3352,242.1516,165.7189,4.520673,0.1025415,0.24732583,160.2290,03/22.0/2022,2000,g  9.5,4.0
# From MPEC 2015-E14
140P/Bowell-Skiff,e,3.8412,343.2415,172.8100,6.423091,0.0605463,0.69228272,146.6317,03/22.0/2022,2000,g 11.5,6.0
# From MPEC 2021-AJ0
141P/Machholz,e,13.9477,241.8223,153.5672,3.057542,0.1843509,0.73587505,84.9223,03/22.0/2022,2000,g 14.7,4.0
# From MPEC 2021-Y10
142P/Ge-Wang,e,12.2515,175.9334,173.9700,4.998639,0.0881914,0.49721276,27.6319,03/22.0/2022,2000,g  8.5,6.0
# From MPEC 2021-W31
143P/Kowal-Mrkos,e,4.7027,245.1380,320.3333,4.278222,0.1113805,0.41149300,157.8433,03/22.0/2022,2000,g 13.5,2.0
# From MPC104795
144P/Kushida,e,3.9321,243.0873,216.3470,3.824268,0.1317897,0.63536758,271.0843,03/22.0/2022,2000,g  8.5,8.0
# From MPC108598
145P/Shoemaker-Levy,e,11.2774,26.7918,10.2440,4.137228,0.1171224,0.54193131,194.6316,03/22.0/2022,2000,g 13.5,4.0
# From MPC100284
146P/Shoemaker-LINEAR,e,23.1084,53.3824,316.9833,4.031007,0.1217822,0.64732486,254.3607,03/22.0/2022,2000,g 15.0,4.0
# From MPC 75720
147P/Kushida-Muramatsu,e,2.3121,92.3280,348.3342,4.031217,0.1217726,0.22146129,283.9998,03/22.0/2022,2000,g 14.0,4.0
# From MPEC 2022-CN4
148P/Anderson-LINEAR,e,3.6581,89.2113,8.0277,3.617344,0.1432582,0.54975611,348.0127,03/22.0/2022,2000,g 16.0,2.0
# From MPC 75720
149P/Mueller,e,34.5176,144.1440,31.1269,4.129973,0.1174311,0.32375099,154.5065,03/22.0/2022,2000,g  8.0,8.0
# From MPEC 2021-W31
150P/LONEOS,e,18.5077,272.2843,245.6624,3.878403,0.1290401,0.54801992,266.8603,03/22.0/2022,2000,g 13.5,4.0
# From MPEC 2015-Q71
151P/Helin,e,4.7286,143.1573,216.0733,5.763136,0.0712387,0.57375292,167.6145,03/22.0/2022,2000,g 10.0,6.0
# From MPEC 2021-F20
152P/Helin-Lawrence,e,9.8805,91.8582,163.9509,4.476393,0.1040667,0.30860691,7.0019,03/22.0/2022,2000,g 12.6,4.0
# From MPC 46101
153P/Ikeya-Zhang,e,27.9597,93.2883,34.9277,50.49377,0.0027469,0.98966469,0.0000,03/03.7382/2002,2000,g  9.0,4.0
# From MPC 87068
154P/Brewington,e,17.6331,343.0397,47.8621,4.801504,0.0936781,0.67600276,283.6757,03/22.0/2022,2000,g  2.5,12.0
# From MPEC 2021-F20
155P/Shoemaker,e,6.3980,97.1830,14.5878,6.573333,0.0584825,0.72624967,50.1843,03/22.0/2022,2000,g 13.8,4.0
# From MPEC 2022-F14
156P/Russell-LINEAR,e,17.2649,35.3518,0.4538,3.461626,0.1530325,0.61497775,74.8404,03/22.0/2022,2000,g 15.5,2.0
# From MPEC 2021-W31
157P/Tritton,e,12.4210,287.5590,155.0347,3.545737,0.1476197,0.55665730,334.6369,03/22.0/2022,2000,g 10.0,4.0
# From MPEC 2021-Y10
158P/Kowal-LINEAR,e,7.8828,135.2763,178.0893,5.144603,0.0844649,0.06654988,21.4410,03/22.0/2022,2000,g  9.0,4.0
# From MPEC 2021-N06
159P/LONEOS,e,23.4730,54.9615,4.5600,5.853163,0.0696014,0.38210552,97.4171,03/22.0/2022,2000,g 10.0,4.0
# From MPEC 2021-J28
160P/LINEAR,e,15.6164,333.3598,12.7420,3.775612,0.1343455,0.52628719,112.9116,03/22.0/2022,2000,g 15.5,2.0
# From MPC 75721
161P/Hartley-IRAS,e,95.7985,1.5749,46.9847,7.721489,0.0459359,0.83508313,281.3299,03/22.0/2022,2000,g  8.5,6.0
# From MPEC 2022-F14
162P/SidingSpring,e,27.5580,30.8961,357.1635,3.091725,0.1813021,0.58304756,85.0515,03/22.0/2022,2000,g 12.0,4.0
# From MPEC 2021-S45
163P/NEAT,e,12.7108,102.0769,349.5752,3.766256,0.1348464,0.45209892,129.4434,03/22.0/2022,2000,g 14.5,4.0
# From MPEC 2021-F20
164P/Christensen,e,16.2615,88.2769,325.8408,3.655699,0.1410095,0.54047802,196.0287,03/22.0/2022,2000,g 11.0,4.0
# From MPC 75721
165P/LINEAR,e,15.8946,0.8657,125.8982,17.86090,0.0130572,0.61550389,104.2167,03/22.0/2022,2000,g 11.5,2.0
# From MPC 75722
166P/NEAT,e,15.3761,64.3989,321.5244,13.81550,0.0191935,0.38417076,138.9904,03/22.0/2022,2000,g  5.5,4.0
# From MPC 75722
167P/CINEOS,e,19.1141,295.6894,344.6837,16.23305,0.0150697,0.27113695,114.8322,03/22.0/2022,2000,g  9.5,2.0
# From MPC102101
168P/Hergenrother,e,21.6244,355.4518,15.0085,3.582401,0.1453593,0.62110434,139.4530,03/22.0/2022,2000,g 15.5,4.0
# From MPEC 2021-N06
169P/NEAT,e,11.2989,176.1076,218.0483,2.601566,0.2348832,0.76829257,334.2365,03/22.0/2022,2000,g 16.0,2.0
# From MPEC 2021-O56
170P/Christensen,e,10.1251,142.9223,225.5981,4.200570,0.1144832,0.30407586,314.7847,03/22.0/2022,2000,g 12.0,4.0
# From MPC102102
171P/Spahr,e,21.9383,101.6905,347.0554,3.554651,0.1470648,0.50176474,171.1542,03/22.0/2022,2000,g 13.5,4.0
# From MPEC 2022-C56
172P/Yeung,e,11.2263,30.8833,209.3710,4.214812,0.1139034,0.20497923,209.2258,03/22.0/2022,2000,g 13.0,4.0
# From MPEC 2022-F14
173P/Mueller,e,16.4918,100.3981,29.1691,5.707246,0.0722877,0.26110808,6.8954,03/22.0/2022,2000,g  7.5,4.0
# From MPC 92985
174P/Echeclus,e,4.3437,173.1988,163.2376,10.73058,0.0280394,0.45736525,70.7097,03/22.0/2022,2000,g  9.4,2.0
# From MPC114608
175P/Hergenrother,e,5.4092,119.0189,65.2469,3.545252,0.1476500,0.42392935,131.4739,03/22.0/2022,2000,g 14.0,4.0
# From MPC 89015
176P/LINEAR,e,0.2342,346.0484,34.5574,3.197452,0.1723844,0.19327856,317.7192,03/22.0/2022,2000,g 15.1,2.0
# From MPEC 2020-L06
177P/Barnard,e,31.2093,272.1088,60.3884,24.45562,0.0081496,0.95531111,46.2651,03/22.0/2022,2000,g 15.0,4.0
# From MPEC 2021-F20
178P/Hug-Bell,e,11.0875,102.8612,297.8073,3.632442,0.1423659,0.48224129,87.3035,03/22.0/2022,2000,g 14.6,4.0
# From MPEC 2022-C56
179P/Jedicke,e,19.8981,115.5139,296.9048,5.932225,0.0682146,0.30586773,355.2792,03/22.0/2022,2000,g  2.5,8.0
# From MPC100284
180P/NEAT,e,16.8634,84.5719,94.7361,3.864711,0.1297265,0.35306751,298.0592,03/22.0/2022,2000,g 11.0,4.0
# From MPC 89012
181P/Shoemaker-Levy,e,17.4861,35.4035,336.2318,3.873372,0.1292916,0.70056056,9.3414,03/22.0/2022,2000,g 11.5,4.0
# From MPEC 2014-J10
182P/LONEOS,e,16.2268,72.4596,54.2360,2.950518,0.1944718,0.66319441,350.0344,03/22.0/2022,2000,g 18.0,4.0
# From MPEC 2021-S45
183P/Korlevic-Juric,e,18.9815,4.0378,168.3052,4.583046,0.1004553,0.12646742,158.3323,03/22.0/2022,2000,g 12.5,2.0
# From MPEC 2020-W26
184P/Lovas,e,4.5735,173.2442,186.4992,3.795523,0.1332897,0.55105348,68.2067,03/22.0/2022,2000,g 13.5,4.0
# From MPC109593
185P/Petriew,e,14.0122,214.1068,181.8776,3.098403,0.1807162,0.69952377,273.6237,03/22.0/2022,2000,g 15.0,4.0
# From MPEC 2021-W31
186P/Garradd,e,28.7728,326.5570,271.3909,4.875007,0.0915675,0.12277183,106.0723,03/22.0/2022,2000,g  7.5,4.0
# From MPEC 2020-SI8
187P/LINEAR,e,13.6344,109.9079,131.6148,4.567348,0.1009736,0.15208325,142.2576,03/22.0/2022,2000,g  9.0,4.0
